*******************************************************************************
 Revised: Nov 05, 2015            Hydra / (Pluto)                           903

 Fit to all available observations including New Horizons encounter tracking.
*******************************************************************************
 
 
*******************************************************************************
Ephemeris / WWW_USER Sat Aug  5 12:50:47 2017 Pasadena, USA      / Horizons    
*******************************************************************************
Target body name: Hydra (903)                     {source: plu055l_merged}
Center body name: Solar System Barycenter (0)     {source: DE431mx}
Center-site name: BODY CENTER
*******************************************************************************
Start time      : A.D. 2017-Jul-10 00:00:00.0000 TDB
Stop  time      : A.D. 2020-Aug-13 00:00:00.0000 TDB
Step-size       : 1440 minutes
*******************************************************************************
Center geodetic : 0.00000000,0.00000000,0.0000000 {E-lon(deg),Lat(deg),Alt(km)}
Center cylindric: 0.00000000,0.00000000,0.0000000 {E-lon(deg),Dxy(km),Dz(km)}
Center radii    : (undefined)                                                  
Output units    : KM-S                                                         
Output type     : GEOMETRIC cartesian states
Output format   : 3 (position, velocity, LT, range, range-rate)
Reference frame : ICRF/J2000.0                                                 
Coordinate systm: Ecliptic and Mean Equinox of Reference Epoch                 
*******************************************************************************
            JDTDB,            Calendar Date (TDB),                      X,                      Y,                      Z,                     VX,                     VY,                     VZ,                     LT,                     RG,                     RR,
**************************************************************************************************************************************************************************************************************************************************************************
$$SOE
2458350.500000000, A.D. 2018-Aug-20 00:00:00.0000,  1.717075309359766E+09, -4.727048771450698E+09,  9.086242277307987E+06,  5.137737238088679E+00,  6.520035827204035E-01, -1.528141766317872E+00,  1.677579371480821E+04,  5.029256432663302E+09,  1.138526943925444E+00,
2458351.500000000, A.D. 2018-Aug-21 00:00:00.0000,  1.717519328185931E+09, -4.726991860300859E+09,  8.954878993799686E+06,  5.140851325535352E+00,  6.655802676104050E-01, -1.513010410046784E+00,  1.677612023307664E+04,  5.029354320377580E+09,  1.127335602396371E+00,
2458352.500000000, A.D. 2018-Aug-22 00:00:00.0000,  1.717963715005732E+09, -4.726933728939235E+09,  8.824727321115732E+06,  5.146281923139881E+00,  6.802255473756746E-01, -1.500178743725639E+00,  1.677644349034818E+04,  5.029451230469580E+09,  1.115928080904698E+00,
2458353.500000000, A.D. 2018-Aug-23 00:00:00.0000,  1.718408678162391E+09, -4.726874283763538E+09,  8.695576153222561E+06,  5.154213032569756E+00,  6.960358823472965E-01, -1.489819005821758E+00,  1.677676342975354E+04,  5.029547145890326E+09,  1.104277442023790E+00,
2458354.500000000, A.D. 2018-Aug-24 00:00:00.0000,  1.718854425012478E+09, -4.726813425000484E+09,  8.567225459681273E+06,  5.164257956778140E+00,  7.127749204441561E-01, -1.481634727434938E+00,  1.677707997435830E+04,  5.029642043575453E+09,  1.092475375303248E+00,
2458355.500000000, A.D. 2018-Aug-25 00:00:00.0000,  1.719301096869911E+09, -4.726751130245911E+09,  8.439467714263201E+06,  5.175575698926023E+00,  7.291052748031234E-01, -1.476279012665687E+00,  1.677739321475237E+04,  5.029735950683134E+09,  1.081491123713842E+00,
2458356.500000000, A.D. 2018-Aug-26 00:00:00.0000,  1.719748805111143E+09, -4.726687453849947E+09,  8.312025638199568E+06,  5.188286960993651E+00,  7.448007554798519E-01, -1.474326883451698E+00,  1.677770344783146E+04,  5.029828956220470E+09,  1.071578242373017E+00,
2458357.500000000, A.D. 2018-Aug-27 00:00:00.0000,  1.720197671817772E+09, -4.726622444448833E+09,  8.184611979015827E+06,  5.202332468777320E+00,  7.599280064335237E-01, -1.475571225685454E+00,  1.677801096493845E+04,  5.029921147529849E+09,  1.062654919378623E+00,
2458358.500000000, A.D. 2018-Aug-28 00:00:00.0000,  1.720647790177487E+09, -4.726556167546342E+09,  8.056962934267759E+06,  5.217136499400707E+00,  7.740307995571434E-01, -1.479735802992388E+00,  1.677831607765936E+04,  5.030012618022419E+09,  1.054954045980014E+00,
2458359.500000000, A.D. 2018-Aug-29 00:00:00.0000,  1.721099193422535E+09, -4.726488741748528E+09,  7.928834328264236E+06,  5.231966955205981E+00,  7.864115075677558E-01, -1.486662351372652E+00,  1.677861919586527E+04,  5.030103490574433E+09,  1.048881296402367E+00,
2458360.500000000, A.D. 2018-Aug-30 00:00:00.0000,  1.721551862544564E+09, -4.726420339837048E+09,  7.799986062113285E+06,  5.246419011113924E+00,  7.965811371064642E-01, -1.496431403963722E+00,  1.677892083968510E+04,  5.030193921116618E+09,  1.044757532183064E+00,
2458361.500000000, A.D. 2018-Aug-31 00:00:00.0000,  1.722005767492537E+09, -4.726351155676357E+09,  7.670163550417423E+06,  5.260613643148175E+00,  8.045755954665996E-01, -1.509191417397417E+00,  1.677922158263642E+04,  5.030284081585222E+09,  1.042590121855596E+00,
2458362.500000000, A.D. 2018-Sep-01 00:00:00.0000,  1.722460879752052E+09, -4.726281365224007E+09,  7.539138551867247E+06,  5.274167971073161E+00,  8.105639128220945E-01, -1.524008113281268E+00,  1.677952194398413E+04,  5.030374127651940E+09,  1.042090517638565E+00,
2458363.500000000, A.D. 2018-Sep-02 00:00:00.0000,  1.722917090578639E+09, -4.726211169286291E+09,  7.406781454852104E+06,  5.285942158924217E+00,  8.138466495078767E-01, -1.540036397587003E+00,  1.677982242967380E+04,  5.030464210995440E+09,  1.043526407747192E+00,
2458364.500000000, A.D. 2018-Sep-03 00:00:00.0000,  1.723374237890911E+09, -4.726140816536801E+09,  7.272978180654764E+06,  5.295882582981259E+00,  8.142234623717849E-01, -1.557499327153368E+00,  1.678012363462905E+04,  5.030554509969337E+09,  1.047066521602447E+00,
2458365.500000000, A.D. 2018-Sep-04 00:00:00.0000,  1.723832168643923E+09, -4.726070547752469E+09,  7.137612081037521E+06,  5.304059198163794E+00,  8.119512903899846E-01, -1.576104936886239E+00,  1.678042613910528E+04,  5.030645198529821E+09,  1.052493061202879E+00,
2458366.500000000, A.D. 2018-Sep-05 00:00:00.0000,  1.724290721385273E+09, -4.726000579882152E+09,  7.000618842464209E+06,  5.310219987038417E+00,  8.072953753098822E-01, -1.595002063058353E+00,  1.678073043909640E+04,  5.030736425372129E+09,  1.059470858369132E+00,
2458367.500000000, A.D. 2018-Sep-06 00:00:00.0000,  1.724749705579580E+09, -4.725931111677342E+09,  6.862012621651888E+06,  5.313985777913247E+00,  8.003884608168242E-01, -1.613332714672463E+00,  1.678103694043005E+04,  5.030828312160326E+09,  1.067745435691581E+00,
2458368.500000000, A.D. 2018-Sep-07 00:00:00.0000,  1.725208900911899E+09, -4.725862340651403E+09,  6.721860693868876E+06,  5.315083343381699E+00,  7.911212844056045E-01, -1.630795676397364E+00,  1.678134601092930E+04,  5.030920969164989E+09,  1.077324978884162E+00,
2458369.500000000, A.D. 2018-Sep-08 00:00:00.0000,  1.725668079306000E+09, -4.725794474256092E+09,  6.580228628968000E+06,  5.313683612284052E+00,  7.795406226794501E-01, -1.647603542461107E+00,  1.678165804031783E+04,  5.031014513222346E+09,  1.088222624630707E+00,
2458370.500000000, A.D. 2018-Sep-09 00:00:00.0000,  1.726127048049851E+09, -4.725727670533332E+09,  6.437198980206251E+06,  5.310239532699236E+00,  7.667091456457307E-01, -1.662871067676080E+00,  1.678197330368989E+04,  5.031109026803574E+09,  1.099595576794818E+00,
2458371.500000000, A.D. 2018-Sep-10 00:00:00.0000,  1.726585620755131E+09, -4.725662013137031E+09,  6.292959906559944E+06,  5.304458279047505E+00,  7.529583782894778E-01, -1.675572109864476E+00,  1.678229185044614E+04,  5.031204524718618E+09,  1.111032208921735E+00,
2458372.500000000, A.D. 2018-Sep-11 00:00:00.0000,  1.727043589597129E+09, -4.725597590646520E+09,  6.147729278352976E+06,  5.296300131011439E+00,  7.381428617077168E-01, -1.685859548397032E+00,  1.678261372068217E+04,  5.031301018987833E+09,  1.122654126951496E+00,
2458373.500000000, A.D. 2018-Sep-12 00:00:00.0000,  1.727500764006818E+09, -4.725534481144496E+09,  6.001712073788643E+06,  5.286153562434587E+00,  7.226770946812520E-01, -1.693750227219919E+00,  1.678293894096946E+04,  5.031398517577149E+09,  1.134204211212601E+00,
2458374.500000000, A.D. 2018-Sep-13 00:00:00.0000,  1.727956994892503E+09, -4.725472708627867E+09,  5.855126895543098E+06,  5.274540259961196E+00,  7.073238236045861E-01, -1.698941841194066E+00,  1.678326741568728E+04,  5.031496991820196E+09,  1.145144636225562E+00,
2458375.500000000, A.D. 2018-Sep-14 00:00:00.0000,  1.728412172051804E+09, -4.725412234577327E+09,  5.708224051675081E+06,  5.261781721152475E+00,  6.926795801558470E-01, -1.701042812046983E+00,  1.678359889779572E+04,  5.031596367656267E+09,  1.155025294690663E+00,
2458376.500000000, A.D. 2018-Sep-15 00:00:00.0000,  1.728866195202549E+09, -4.725352991571040E+09,  5.561282870580435E+06,  5.247788593368599E+00,  6.787850429394502E-01, -1.699829744256463E+00,  1.678393306099193E+04,  5.031696547262234E+09,  1.163776884459261E+00,
2458377.500000000, A.D. 2018-Sep-16 00:00:00.0000,  1.729318958488473E+09, -4.725294922761493E+09,  5.414575518971443E+06,  5.232771941577716E+00,  6.655763832975907E-01, -1.695775199341807E+00,  1.678426960549222E+04,  5.031797440765203E+09,  1.171530687756445E+00,
2458378.500000000, A.D. 2018-Sep-17 00:00:00.0000,  1.729770425083088E+09, -4.725237928420432E+09,  5.268322300898314E+06,  5.217924573170479E+00,  6.541084193922354E-01, -1.689268379451726E+00,  1.678460817597258E+04,  5.031898941641715E+09,  1.177705306252461E+00,
